TDRS 3                  
1 19548U 88091B   26162.82739316 -.00000293  00000+0  00000+0 0  9992
2 19548  12.6063 341.0357 0038382 356.0891 172.0470  1.00275198125334
FLTSATCOM 8 (USA 46)    
1 20253U 89077A   26162.93320073 -.00000361  00000+0  00000+0 0  9996
2 20253  12.4233 351.1976 0004592  51.8853 318.7044  1.00280204260519
SKYNET 4C               
1 20776U 90079A   26162.20198485  .00000132  00000+0  00000+0 0  9995
2 20776  13.3423 349.8525 0002401  96.2300 279.5546  1.00274124130837
TDRS 5                  
1 21639U 91054B   26162.73255655  .00000088  00000+0  00000+0 0  9999
2 21639  14.0720 353.8179 0006318 274.5879  87.6890  1.00272138127667
TDRS 6                  
1 22314U 93003B   26162.94902881 -.00000291  00000+0  00000+0 0  9996
2 22314  14.1828 357.0999 0007616 178.1277  20.9012  1.00273301122357
UFO 2 (USA 95)          
1 22787U 93056A   26162.77361471  .00000131  00000+0  00000+0 0  9995
2 22787  11.8931   3.5872 0006168   6.9946 196.6568  1.00274145118499
USA 99 (MILSTAR-1 1)    
1 22988U 94009A   26162.73358704 -.00000041  00000+0  00000+0 0  9999
2 22988  17.6184  27.7620 0001084 209.5321 322.3004  0.98721443 32891
UFO 4 (USA 108)         
1 23467U 95003A   26162.79989418 -.00000015  00000+0  00000+0 0  9996
2 23467   9.6978  13.2509 0003095  61.6664 285.3525  1.00271654114898
TDRS 7                  
1 23613U 95035B   26162.81109679 -.00000232  00000+0  00000+0 0  9991
2 23613  13.3794 348.2294 0011108  76.9526 215.9388  1.00265875113197
USA 115 (MILSTAR-1 2)   
1 23712U 95060A   26162.53293728 -.00000176  00000+0  00000+0 0  9994
2 23712  14.0708   3.7894 0001630 140.4948 211.3483  1.00365229 32823
INMARSAT 3-F1           
1 23839U 96020A   26162.16225447 -.00000147  00000+0  00000+0 0  9991
2 23839  10.5893  46.6916 0003680  41.2926 141.1227  0.99979598110191
INMARSAT 3-F2           
1 24307U 96053A   26162.51127052 -.00000206  00000+0  00000+0 0  9996
2 24307   9.8450  53.9959 0006750  24.9086 159.8632  1.00004099108861
INMARSAT 3-F3           
1 24674U 96070A   26162.83389287  .00000137  00000+0  00000+0 0  9999
2 24674  10.3073  49.7060 0003469  17.9617 180.8244  0.99979995107852
AMC-3                   
1 24936U 97050A   26156.46923512 -.00000232  00000+0  00000+0 0  9993
2 24936   8.1165  64.2198 0010464 111.2215 173.9176  1.00107765 52317
USA 134                 
1 25019U 97065A   26162.32547795 -.00000056  00000+0  00000+0 0  9993
2 25019  12.7769  21.7647 0003367 337.3695 265.4904  1.00269801 32892
INMARSAT 3-F5           
1 25153U 98006B   26162.20183615 -.00000281  00000+0  00000+0 0  9992
2 25153   9.6794  53.3174 0004512  23.8714 201.0569  1.00270167103835
ABS-6                   
1 25924U 99053A   26162.86853707 -.00000103  00000+0  00000+0 0  9992
2 25924   0.0157 317.2931 0003302 126.9344 287.6538  1.00271204 97787
UFO 10 (USA 146)        
1 25967U 99063A   26161.97699617 -.00000178  00000+0  00000+0 0  9991
2 25967   9.8430  27.2488 0001970  29.1923 171.6795  1.00272465 97288
ASIASTAR                
1 26107U 00016A   26162.90317023 -.00000324  00000+0  00000+0 0  9993
2 26107   9.1166  58.2106 0004429  23.8160 248.3819  1.00271391 95869
USA 149 (DSP 20)        
1 26356U 00024A   26162.80422753  .00000099  00000+0  00000+0 0  9992
2 26356  13.1664  11.8893 0001723 305.5391  66.8258  1.00272572 32864
TDRS 8                  
1 26388U 00034A   26162.85389437 -.00000187  00000+0  00000+0 0  9993
2 26388  12.6756  31.3691 0004844  14.3810 246.5323  1.00268192 95127
NSS-11                  
1 26554U 00059A   26162.87191709  .00000040  00000+0  00000+0 0  9997
2 26554   2.1122  81.4496 0002902   5.8559 302.8063  1.00272816 41238
USA 153                 
1 26575U 00065A   26162.67556403 -.00000317  00000+0  00000+0 0  9999
2 26575  11.6152  35.4676 0003034  46.3864 195.8793  1.00270810 32876
AMC-6                   
1 26580U 00067A   26162.73905659  .00000105  00000+0  00000+0 0  9999
2 26580   0.1378  83.0423 0003488   8.3508 299.7054  1.00271565 93835
USA 157 (MILSTAR-2 2)   
1 26715U 01009A   26162.73602323  .00000116  00000+0  00000+0 0  9990
2 26715  11.5365  19.7965 0039333 177.4228 177.7432  1.00272376 32883
USA 159 (DSP 21)        
1 26880U 01033A   26162.53813730 -.00000160  00000+0  00000+0 0  9994
2 26880  12.7766  16.4803 0001400 134.1270 233.8090  0.99198114 32901
INTELSAT 902 (IS-902)   
1 26900U 01039A   26162.68450689 -.00000270  00000+0  00000+0 0  9991
2 26900   6.1041  71.8507 0004513   4.8045  19.6883  1.00271994 90640
USA 164 (MILSTAR-2 3)   
1 27168U 02001A   26162.78257997  .00000105  00000+0  00000+0 0  9992
2 27168  11.1729  21.9385 0099006   8.2953 170.5932  1.00275535 32905
INTELSAT 904 (IS-904)   
1 27380U 02007A   26162.43088535 -.00000213  00000+0  00000+0 0  9997
2 27380   6.9050  69.2520 0006582   2.4614 311.6923  1.00272051 51700
DIRECTV 5 (TEMPO 1)     
1 27426U 02023A   26162.67272017 -.00000043  00000+0  00000+0 0  9993
2 27426   4.8630  75.3774 0003246  17.7404 298.9727  1.00271407 88063
INTELSAT 905 (IS-905)   
1 27438U 02027A   26162.51202027  .00000107  00000+0  00000+0 0  9997
2 27438   6.7387  69.8665 0003856  17.4003 219.6999  1.00271458 51306
