OBJECT_NAME,OBJECT_ID,EPOCH,MEAN_MOTION,ECCENTRICITY,INCLINATION,RA_OF_ASC_NODE,ARG_OF_PERICENTER,MEAN_ANOMALY,EPHEMERIS_TYPE,CLASSIFICATION_TYPE,NORAD_CAT_ID,ELEMENT_SET_NO,REV_AT_EPOCH,BSTAR,MEAN_MOTION_DOT,MEAN_MOTION_DDOT
TDRS 3,1988-091B,2026-06-11T19:51:26.769024,1.00275198,.00383826,12.6063,341.0357,356.0891,172.0470,0,U,19548,999,12533,0,-.293E-5,0
FLTSATCOM 8 (USA 46),1989-077A,2026-06-11T22:23:48.543072,1.00280204,.00045922,12.4233,351.1976,51.8853,318.7044,0,U,20253,999,26051,0,-.361E-5,0
SKYNET 4C,1990-079A,2026-06-11T04:50:51.491040,1.00274124,.0002401,13.3423,349.8525,96.2300,279.5546,0,U,20776,999,13083,0,.132E-5,0
TDRS 5,1991-054B,2026-06-11T17:34:52.885920,1.00272138,.00063187,14.0720,353.8179,274.5879,87.6890,0,U,21639,999,12766,0,.88E-6,0
TDRS 6,1993-003B,2026-06-11T22:46:36.089184,1.00273301,.00076163,14.1828,357.0999,178.1277,20.9012,0,U,22314,999,12235,0,-.291E-5,0
UFO 2 (USA 95),1993-056A,2026-06-11T18:34:00.310944,1.00274145,.00061686,11.8931,3.5872,6.9946,196.6568,0,U,22787,999,11849,0,.131E-5,0
USA 99 (MILSTAR-1 1),1994-009A,2026-06-11T17:36:21.920256,0.98721443,.00010841,17.6184,27.7620,209.5321,322.3004,0,U,22988,999,3289,0,-.41E-6,0
UFO 4 (USA 108),1995-003A,2026-06-11T19:11:50.857152,1.00271654,.00030959,9.6978,13.2509,61.6664,285.3525,0,U,23467,999,11489,0,-.15E-6,0
TDRS 7,1995-035B,2026-06-11T19:27:58.762656,1.00265875,.00111081,13.3794,348.2294,76.9526,215.9388,0,U,23613,999,11319,0,-.232E-5,0
USA 115 (MILSTAR-1 2),1995-060A,2026-06-11T12:47:25.780992,1.00365229,.000163,14.0708,3.7894,140.4948,211.3483,0,U,23712,999,3282,0,-.176E-5,0
INMARSAT 3-F1,1996-020A,2026-06-11T03:53:38.786208,0.99979598,.00036804,10.5893,46.6916,41.2926,141.1227,0,U,23839,999,11019,0,-.147E-5,0
INMARSAT 3-F2,1996-053A,2026-06-11T12:16:13.772928,1.00004099,.000675,9.8450,53.9959,24.9086,159.8632,0,U,24307,999,10886,0,-.206E-5,0
INMARSAT 3-F3,1996-070A,2026-06-11T20:00:48.343968,0.99979995,.00034692,10.3073,49.7060,17.9617,180.8244,0,U,24674,999,10785,0,.137E-5,0
AMC-3,1997-050A,2026-06-05T11:15:41.914368,1.00107765,.00104649,8.1165,64.2198,111.2215,173.9176,0,U,24936,999,5231,0,-.232E-5,0
USA 134,1997-065A,2026-06-11T07:48:41.294880,1.00269801,.0003367,12.7769,21.7647,337.3695,265.4904,0,U,25019,999,3289,0,-.56E-6,0
INMARSAT 3-F5,1998-006B,2026-06-11T04:50:38.643360,1.00270167,.0004512,9.6794,53.3174,23.8714,201.0569,0,U,25153,999,10383,0,-.281E-5,0
ABS-6,1999-053A,2026-06-11T20:50:41.602848,1.00271204,.00033022,0.0157,317.2931,126.9344,287.6538,0,U,25924,999,9778,0,-.103E-5,0
UFO 10 (USA 146),1999-063A,2026-06-10T23:26:52.469088,1.00272465,.00019707,9.8430,27.2488,29.1923,171.6795,0,U,25967,999,9728,0,-.178E-5,0
ASIASTAR,2000-016A,2026-06-11T21:40:33.907872,1.00271391,.00044291,9.1166,58.2106,23.8160,248.3819,0,U,26107,999,9586,0,-.324E-5,0
USA 149 (DSP 20),2000-024A,2026-06-11T19:18:05.258592,1.00272572,.0001723,13.1664,11.8893,305.5391,66.8258,0,U,26356,999,3286,0,.99E-6,0
TDRS 8,2000-034A,2026-06-11T20:29:36.473568,1.00268192,.00048449,12.6756,31.3691,14.3810,246.5323,0,U,26388,999,9512,0,-.187E-5,0
NSS-11,2000-059A,2026-06-11T20:55:33.636576,1.00272816,.00029026,2.1122,81.4496,5.8559,302.8063,0,U,26554,999,4123,0,.4E-6,0
USA 153,2000-065A,2026-06-11T16:12:48.732192,1.00270810,.00030348,11.6152,35.4676,46.3864,195.8793,0,U,26575,999,3287,0,-.317E-5,0
AMC-6,2000-067A,2026-06-11T17:44:14.489376,1.00271565,.00034881,0.1378,83.0423,8.3508,299.7054,0,U,26580,999,9383,0,.105E-5,0
USA 157 (MILSTAR-2 2),2001-009A,2026-06-11T17:39:52.407072,1.00272376,.00393336,11.5365,19.7965,177.4228,177.7432,0,U,26715,999,3288,0,.116E-5,0
USA 159 (DSP 21),2001-033A,2026-06-11T12:54:55.062720,0.99198114,.00014,12.7766,16.4803,134.1270,233.8090,0,U,26880,999,3290,0,-.16E-5,0
INTELSAT 902 (IS-902),2001-039A,2026-06-11T16:25:41.395296,1.00271994,.00045137,6.1041,71.8507,4.8045,19.6883,0,U,26900,999,9064,0,-.27E-5,0
USA 164 (MILSTAR-2 3),2002-001A,2026-06-11T18:46:54.909408,1.00275535,.00990061,11.1729,21.9385,8.2953,170.5932,0,U,27168,999,3290,0,.105E-5,0
INTELSAT 904 (IS-904),2002-007A,2026-06-11T10:20:28.494240,1.00272051,.0006582,6.9050,69.2520,2.4614,311.6923,0,U,27380,999,5170,0,-.213E-5,0
DIRECTV 5 (TEMPO 1),2002-023A,2026-06-11T16:08:43.022688,1.00271407,.00032461,4.8630,75.3774,17.7404,298.9727,0,U,27426,999,8806,0,-.43E-6,0
INTELSAT 905 (IS-905),2002-027A,2026-06-11T12:17:18.551328,1.00271458,.0003856,6.7387,69.8665,17.4003,219.6999,0,U,27438,999,5130,0,.107E-5,0
